{"type": "FeatureCollection", "features": [ {"type": "Feature", "properties": {"norad_id": 31057, "name": "FENGYUN 1C DEB", "group": "fengyun-1c-debris", "lat": -8.478235011237077, "lon": -150.9560526899199, "alt_km": 574.7323068046917, "timestamp": "2025-12-16T10:53:45.750121+00:00", "meta": {"OBJECT_NAME": "FENGYUN 1C DEB", "OBJECT_ID": "1999-025BFB", "EPOCH": "2025-12-07T08:31:09.738912", "MEAN_MOTION": 14.79274467, "ECCENTRICITY": 0.0137797, "INCLINATION": 99.2572, "RA_OF_ASC_NODE": 19.9678, "ARG_OF_PERICENTER": 268.7892, "MEAN_ANOMALY": 89.7526, "EPHEMERIS_TYPE": 0, "CLASSIFICATION_TYPE": "U", "NORAD_CAT_ID": 31057, "ELEMENT_SET_NO": 999, "REV_AT_EPOCH": 61873, "BSTAR": 0.0014079461, "MEAN_MOTION_DOT": 0.00012236, "MEAN_MOTION_DDOT": 0}, "tle": {"line1": "1 31057U 99025BFB 25341.35497383  .00012236  00000+0  14079-2 0  9994", "line2": "2 31057  99.2572  19.9678 0137797 268.7892  89.7526 14.79274467618731"}}, "geometry": {"type": "Point", "coordinates": [-150.9560526899199, -8.478235011237077]}}, {"type": "Feature", "properties": {"norad_id": 31058, "name": "FENGYUN 1C DEB", "group": "fengyun-1c-debris", "lat": -46.063577434949096, "lon": -49.51178229456491, "alt_km": 699.384779772704, "timestamp": "2025-12-16T10:53:45.750132+00:00", "meta": {"OBJECT_NAME": "FENGYUN 1C DEB", "OBJECT_ID": "1999-025BFC", "EPOCH": "2025-12-13T01:46:58.731168", "MEAN_MOTION": 14.76336624, "ECCENTRICITY": 0.00951509, "INCLINATION": 99.5659, "RA_OF_ASC_NODE": 296.4111, "ARG_OF_PERICENTER": 105.1119, "MEAN_ANOMALY": 256.0635, "EPHEMERIS_TYPE": 0, "CLASSIFICATION_TYPE": "U", "NORAD_CAT_ID": 31058, "ELEMENT_SET_NO": 999, "REV_AT_EPOCH": 99554, "BSTAR": 0.0017482376, "MEAN_MOTION_DOT": 0.00013017, "MEAN_MOTION_DDOT": 0}, "tle": {"line1": "1 31058U 99025BFC 25347.07429087  .00013017  00000+0  17482-2 0  9995", "line2": "2 31058  99.5659 296.4111 0095150 105.1119 256.0635 14.76336624995545"}}, "geometry": {"type": "Point", "coordinates": [-49.51178229456491, -46.063577434949096]}}, {"type": "Feature", "properties": {"norad_id": 31062, "name": "FENGYUN 1C DEB", "group": "fengyun-1c-debris", "lat": -35.90535471363267, "lon": -13.949335765413212, "alt_km": 986.8982121598319, "timestamp": "2025-12-16T10:53:45.750142+00:00", "meta": {"OBJECT_NAME": "FENGYUN 1C DEB", "OBJECT_ID": "1999-025BFG", "EPOCH": "2025-12-15T11:16:51.741984", "MEAN_MOTION": 13.75693302, "ECCENTRICITY": 0.01715187, "INCLINATION": 98.9965, "RA_OF_ASC_NODE": 171.7077, "ARG_OF_PERICENTER": 310.5963, "MEAN_ANOMALY": 77.2553, "EPHEMERIS_TYPE": 0, "CLASSIFICATION_TYPE": "U", "NORAD_CAT_ID": 31062, "ELEMENT_SET_NO": 999, "REV_AT_EPOCH": 94271, "BSTAR": 0.0002988019, "MEAN_MOTION_DOT": 2.79e-06, "MEAN_MOTION_DDOT": 0}, "tle": {"line1": "1 31062U 99025BFG 25349.47004331  .00000279  00000+0  29880-3 0  9999", "line2": "2 31062  98.9965 171.7077 0171518 310.5963  77.2553 13.75693302942711"}}, "geometry": {"type": "Point", "coordinates": [-13.949335765413212, -35.90535471363267]}}, {"type": "Feature", "properties": {"norad_id": 31064, "name": "FENGYUN 1C DEB", "group": "fengyun-1c-debris", "lat": -81.24054041455031, "lon": 74.76962083156425, "alt_km": 799.032551355951, "timestamp": "2025-12-16T10:53:45.750154+00:00", "meta": {"OBJECT_NAME": "FENGYUN 1C DEB", "OBJECT_ID": "1999-025BFJ", "EPOCH": "2025-12-14T22:18:03.510720", "MEAN_MOTION": 14.22139925, "ECCENTRICITY": 0.02413906, "INCLINATION": 98.5739, "RA_OF_ASC_NODE": 331.556, "ARG_OF_PERICENTER": 355.2741, "MEAN_ANOMALY": 33.6089, "EPHEMERIS_TYPE": 0, "CLASSIFICATION_TYPE": "U", "NORAD_CAT_ID": 31064, "ELEMENT_SET_NO": 999, "REV_AT_EPOCH": 97286, "BSTAR": 0.00040345463, "MEAN_MOTION_DOT": 1.155e-05, "MEAN_MOTION_DDOT": 0}, "tle": {"line1": "1 31064U 99025BFJ 25348.92920730  .00001155  00000+0  40345-3 0  9993", "line2": "2 31064  98.5739 331.5560 0241390 355.2741  33.6089 14.22139925972865"}}, "geometry": {"type": "Point", "coordinates": [74.76962083156425, -81.24054041455031]}}, {"type": "Feature", "properties": {"norad_id": 31065, "name": "FENGYUN 1C DEB", "group": "fengyun-1c-debris", "lat": -75.94236658498603, "lon": 45.95214879223154, "alt_km": 809.0234566294894, "timestamp": "2025-12-16T10:53:45.750164+00:00", "meta": {"OBJECT_NAME": "FENGYUN 1C DEB", "OBJECT_ID": "1999-025BFK", "EPOCH": "2025-12-13T07:35:59.491392", "MEAN_MOTION": 14.28179261, "ECCENTRICITY": 0.00351676, "INCLINATION": 98.4666, "RA_OF_ASC_NODE": 6.4073, "ARG_OF_PERICENTER": 29.7365, "MEAN_ANOMALY": 330.5806, "EPHEMERIS_TYPE": 0, "CLASSIFICATION_TYPE": "U", "NORAD_CAT_ID": 31065, "ELEMENT_SET_NO": 999, "REV_AT_EPOCH": 64586, "BSTAR": 0.0013755, "MEAN_MOTION_DOT": 3.406e-05, "MEAN_MOTION_DDOT": 0}, "tle": {"line1": "1 31065U 99025BFK 25347.31666078  .00003406  00000+0  13755-2 0  9993", "line2": "2 31065  98.4666   6.4073 0035167  29.7365 330.5806 14.28179261645865"}}, "geometry": {"type": "Point", "coordinates": [45.95214879223154, -75.94236658498603]}}, {"type": "Feature", "properties": {"norad_id": 31068, "name": "FENGYUN 1C DEB", "group": "fengyun-1c-debris", "lat": 64.99978615178685, "lon": -46.53405958744568, "alt_km": 764.6317851213225, "timestamp": "2025-12-16T10:53:45.750174+00:00", "meta": {"OBJECT_NAME": "FENGYUN 1C DEB", "OBJECT_ID": "1999-025BFN", "EPOCH": "2025-12-08T16:50:26.088576", "MEAN_MOTION": 14.0918717, "ECCENTRICITY": 0.01655633, "INCLINATION": 98.6287, "RA_OF_ASC_NODE": 325.0408, "ARG_OF_PERICENTER": 129.6248, "MEAN_ANOMALY": 231.9669, "EPHEMERIS_TYPE": 0, "CLASSIFICATION_TYPE": "U", "NORAD_CAT_ID": 31068, "ELEMENT_SET_NO": 999, "REV_AT_EPOCH": 96298, "BSTAR": 0.00020953749, "MEAN_MOTION_DOT": 3.73e-06, "MEAN_MOTION_DDOT": 0}, "tle": {"line1": "1 31068U 99025BFN 25342.70169084  .00000373  00000+0  20954-3 0  9999", "line2": "2 31068  98.6287 325.0408 0165563 129.6248 231.9669 14.09187170962988"}}, "geometry": {"type": "Point", "coordinates": [-46.53405958744568, 64.99978615178685]}}, {"type": "Feature", "properties": {"norad_id": 31069, "name": "FENGYUN 1C DEB", "group": "fengyun-1c-debris", "lat": -20.28998286125044, "lon": 154.47822027213954, "alt_km": 702.5616889122612, "timestamp": "2025-12-16T10:53:45.750184+00:00", "meta": {"OBJECT_NAME": "FENGYUN 1C DEB", "OBJECT_ID": "1999-025BFP", "EPOCH": "2025-12-15T06:58:24.353760", "MEAN_MOTION": 14.57126924, "ECCENTRICITY": 0.01044954, "INCLINATION": 99.0991, "RA_OF_ASC_NODE": 149.8113, "ARG_OF_PERICENTER": 69.7479, "MEAN_ANOMALY": 291.4914, "EPHEMERIS_TYPE": 0, "CLASSIFICATION_TYPE": "U", "NORAD_CAT_ID": 31069, "ELEMENT_SET_NO": 999, "REV_AT_EPOCH": 98723, "BSTAR": 0.00048052273, "MEAN_MOTION_DOT": 2.275e-05, "MEAN_MOTION_DDOT": 0}, "tle": {"line1": "1 31069U 99025BFP 25349.29055965  .00002275  00000+0  48052-3 0  9995", "line2": "2 31069  99.0991 149.8113 0104495  69.7479 291.4914 14.57126924987230"}}, "geometry": {"type": "Point", "coordinates": [154.47822027213954, -20.28998286125044]}}, {"type": "Feature", "properties": {"norad_id": 31071, "name": "FENGYUN 1C DEB", "group": "fengyun-1c-debris", "lat": 18.164078899065643, "lon": 65.49153224308282, "alt_km": 729.3429246520609, "timestamp": "2025-12-16T10:53:45.750194+00:00", "meta": {"OBJECT_NAME": "FENGYUN 1C DEB", "OBJECT_ID": "1999-025BFR", "EPOCH": "2025-12-15T00:05:47.151744", "MEAN_MOTION": 14.52651665, "ECCENTRICITY": 0.00559333, "INCLINATION": 99.0416, "RA_OF_ASC_NODE": 66.9247, "ARG_OF_PERICENTER": 274.8809, "MEAN_ANOMALY": 84.6, "EPHEMERIS_TYPE": 0, "CLASSIFICATION_TYPE": "U", "NORAD_CAT_ID": 31071, "ELEMENT_SET_NO": 999, "REV_AT_EPOCH": 65527, "BSTAR": 0.00072662083, "MEAN_MOTION_DOT": 2.984e-05, "MEAN_MOTION_DDOT": 0}, "tle": {"line1": "1 31071U 99025BFR 25349.00401796  .00002984  00000+0  72662-3 0  9995", "line2": "2 31071  99.0416  66.9247 0055933 274.8809  84.6000 14.52651665655274"}}, "geometry": {"type": "Point", "coordinates": [65.49153224308282, 18.164078899065643]}}, {"type": "Feature", "properties": {"norad_id": 31072, "name": "FENGYUN 1C DEB", "group": "fengyun-1c-debris", "lat": -57.39584077296068, "lon": 161.17745841368077, "alt_km": 945.8287553815844, "timestamp": "2025-12-16T10:53:45.750204+00:00", "meta": {"OBJECT_NAME": "FENGYUN 1C DEB", "OBJECT_ID": "1999-025BFS", "EPOCH": "2025-12-15T06:50:38.614560", "MEAN_MOTION": 14.2549222, "ECCENTRICITY": 0.02103803, "INCLINATION": 99.3332, "RA_OF_ASC_NODE": 354.8322, "ARG_OF_PERICENTER": 90.5097, "MEAN_ANOMALY": 272.0189, "EPHEMERIS_TYPE": 0, "CLASSIFICATION_TYPE": "U", "NORAD_CAT_ID": 31072, "ELEMENT_SET_NO": 999, "REV_AT_EPOCH": 96679, "BSTAR": 0.00049606226, "MEAN_MOTION_DOT": 1.426e-05, "MEAN_MOTION_DDOT": 0}, "tle": {"line1": "1 31072U 99025BFS 25349.28516915  .00001426  00000+0  49606-3 0  9998", "line2": "2 31072  99.3332 354.8322 0210380  90.5097 272.0189 14.25492220966792"}}, "geometry": {"type": "Point", "coordinates": [161.17745841368077, -57.39584077296068]}}, {"type": "Feature", "properties": {"norad_id": 31073, "name": "FENGYUN 1C DEB", "group": "fengyun-1c-debris", "lat": -41.796748718099735, "lon": 11.98159728777953, "alt_km": 795.6875181926853, "timestamp": "2025-12-16T10:53:45.750214+00:00", "meta": {"OBJECT_NAME": "FENGYUN 1C DEB", "OBJECT_ID": "1999-025BFT", "EPOCH": "2025-12-13T12:45:04.677696", "MEAN_MOTION": 14.24806059, "ECCENTRICITY": 0.00454376, "INCLINATION": 99.2205, "RA_OF_ASC_NODE": 197.2639, "ARG_OF_PERICENTER": 283.3853, "MEAN_ANOMALY": 76.2261, "EPHEMERIS_TYPE": 0, "CLASSIFICATION_TYPE": "U", "NORAD_CAT_ID": 31073, "ELEMENT_SET_NO": 999, "REV_AT_EPOCH": 97094, "BSTAR": 0.0018876513, "MEAN_MOTION_DOT": 4.403e-05, "MEAN_MOTION_DDOT": 0}, "tle": {"line1": "1 31073U 99025BFT 25347.53130414  .00004403  00000+0  18877-2 0  9994", "line2": "2 31073  99.2205 197.2639 0045437 283.3853  76.2261 14.24806059970947"}}, "geometry": {"type": "Point", "coordinates": [11.98159728777953, -41.796748718099735]}}]}